{"type": "FeatureCollection", "features": [ {"type": "Feature", "properties": {"norad_id": 33779, "name": "COSMOS 2251 DEB", "group": "cosmos-2251-debris", "lat": -6.544541327119506, "lon": -31.74182750868459, "alt_km": 650.9459352207978, "timestamp": "2025-12-25T07:00:34.440699+00:00", "meta": {"OBJECT_NAME": "COSMOS 2251 DEB", "OBJECT_ID": "1993-036U", "EPOCH": "2025-12-24T21:05:36.174624", "MEAN_MOTION": 14.70766262, "ECCENTRICITY": 0.00159079, "INCLINATION": 74.045, "RA_OF_ASC_NODE": 147.1786, "ARG_OF_PERICENTER": 180.0907, "MEAN_ANOMALY": 339.8161, "EPHEMERIS_TYPE": 0, "CLASSIFICATION_TYPE": "U", "NORAD_CAT_ID": 33779, "ELEMENT_SET_NO": 999, "REV_AT_EPOCH": 88706, "BSTAR": 0.0027468588, "MEAN_MOTION_DOT": 0.00016808, "MEAN_MOTION_DDOT": 0}, "tle": {"line1": "1 33779U 93036U   25358.87889091  .00016808  00000+0  27469-2 0  9995", "line2": "2 33779  74.0450 147.1786 0015907 180.0907 339.8161 14.70766262887063"}}, "geometry": {"type": "Point", "coordinates": [-31.74182750868459, -6.544541327119506]}}, {"type": "Feature", "properties": {"norad_id": 33782, "name": "COSMOS 2251 DEB", "group": "cosmos-2251-debris", "lat": 25.782414297999907, "lon": -97.71786542859029, "alt_km": 750.3909252364729, "timestamp": "2025-12-25T07:00:34.440710+00:00", "meta": {"OBJECT_NAME": "COSMOS 2251 DEB", "OBJECT_ID": "1993-036X", "EPOCH": "2025-12-24T17:50:41.915616", "MEAN_MOTION": 14.40475861, "ECCENTRICITY": 0.00211225, "INCLINATION": 74.0327, "RA_OF_ASC_NODE": 255.3467, "ARG_OF_PERICENTER": 318.6664, "MEAN_ANOMALY": 104.7613, "EPHEMERIS_TYPE": 0, "CLASSIFICATION_TYPE": "U", "NORAD_CAT_ID": 33782, "ELEMENT_SET_NO": 999, "REV_AT_EPOCH": 88299, "BSTAR": 0.00033132965, "MEAN_MOTION_DOT": 1.03e-05, "MEAN_MOTION_DDOT": 0}, "tle": {"line1": "1 33782U 93036X   25358.74354069  .00001030  00000+0  33133-3 0  9994", "line2": "2 33782  74.0327 255.3467 0021122 318.6664 104.7613 14.40475861882990"}}, "geometry": {"type": "Point", "coordinates": [-97.71786542859029, 25.782414297999907]}}, {"type": "Feature", "properties": {"norad_id": 33785, "name": "COSMOS 2251 DEB", "group": "cosmos-2251-debris", "lat": 18.07913514042786, "lon": -150.10730159174435, "alt_km": 674.8460082548363, "timestamp": "2025-12-25T07:00:34.440721+00:00", "meta": {"OBJECT_NAME": "COSMOS 2251 DEB", "OBJECT_ID": "1993-036AA", "EPOCH": "2025-12-24T13:03:17.999712", "MEAN_MOTION": 14.70740898, "ECCENTRICITY": 0.00232499, "INCLINATION": 73.8666, "RA_OF_ASC_NODE": 36.7814, "ARG_OF_PERICENTER": 334.1933, "MEAN_ANOMALY": 187.5116, "EPHEMERIS_TYPE": 0, "CLASSIFICATION_TYPE": "U", "NORAD_CAT_ID": 33785, "ELEMENT_SET_NO": 999, "REV_AT_EPOCH": 88680, "BSTAR": 0.0020429861, "MEAN_MOTION_DOT": 0.00012503, "MEAN_MOTION_DDOT": 0}, "tle": {"line1": "1 33785U 93036AA  25358.54395833  .00012503  00000+0  20430-2 0  9991", "line2": "2 33785  73.8666  36.7814 0023249 334.1933 187.5116 14.70740898886806"}}, "geometry": {"type": "Point", "coordinates": [-150.10730159174435, 18.07913514042786]}}, {"type": "Feature", "properties": {"norad_id": 33789, "name": "COSMOS 2251 DEB", "group": "cosmos-2251-debris", "lat": -62.74818052220963, "lon": -80.20699517703403, "alt_km": 872.0642753507909, "timestamp": "2025-12-25T07:00:34.440731+00:00", "meta": {"OBJECT_NAME": "COSMOS 2251 DEB", "OBJECT_ID": "1993-036AE", "EPOCH": "2025-12-24T14:51:06.695136", "MEAN_MOTION": 13.88821127, "ECCENTRICITY": 0.02395921, "INCLINATION": 74.0643, "RA_OF_ASC_NODE": 67.2456, "ARG_OF_PERICENTER": 180.255, "MEAN_ANOMALY": 300.0358, "EPHEMERIS_TYPE": 0, "CLASSIFICATION_TYPE": "U", "NORAD_CAT_ID": 33789, "ELEMENT_SET_NO": 999, "REV_AT_EPOCH": 85260, "BSTAR": 0.00062291727, "MEAN_MOTION_DOT": 9.24e-06, "MEAN_MOTION_DDOT": 0}, "tle": {"line1": "1 33789U 93036AE  25358.61882749  .00000924  00000+0  62292-3 0  9997", "line2": "2 33789  74.0643  67.2456 0239592 180.2550 300.0358 13.88821127852608"}}, "geometry": {"type": "Point", "coordinates": [-80.20699517703403, -62.74818052220963]}}, {"type": "Feature", "properties": {"norad_id": 33791, "name": "COSMOS 2251 DEB", "group": "cosmos-2251-debris", "lat": 49.238456253365776, "lon": 33.67456654986072, "alt_km": 762.9009835325014, "timestamp": "2025-12-25T07:00:34.440742+00:00", "meta": {"OBJECT_NAME": "COSMOS 2251 DEB", "OBJECT_ID": "1993-036AG", "EPOCH": "2025-12-24T19:56:25.935936", "MEAN_MOTION": 14.43187539, "ECCENTRICITY": 0.00300623, "INCLINATION": 74.1748, "RA_OF_ASC_NODE": 15.3133, "ARG_OF_PERICENTER": 210.1144, "MEAN_ANOMALY": 326.7953, "EPHEMERIS_TYPE": 0, "CLASSIFICATION_TYPE": "U", "NORAD_CAT_ID": 33791, "ELEMENT_SET_NO": 999, "REV_AT_EPOCH": 88226, "BSTAR": 0.00088505452, "MEAN_MOTION_DOT": 2.967e-05, "MEAN_MOTION_DDOT": 0}, "tle": {"line1": "1 33791U 93036AG  25358.83085574  .00002967  00000+0  88505-3 0  9999", "line2": "2 33791  74.1748  15.3133 0030062 210.1144 326.7953 14.43187539882262"}}, "geometry": {"type": "Point", "coordinates": [33.67456654986072, 49.238456253365776]}}, {"type": "Feature", "properties": {"norad_id": 33792, "name": "COSMOS 2251 DEB", "group": "cosmos-2251-debris", "lat": 26.120579661941868, "lon": -26.56038116747199, "alt_km": 766.8030325490208, "timestamp": "2025-12-25T07:00:34.440753+00:00", "meta": {"OBJECT_NAME": "COSMOS 2251 DEB", "OBJECT_ID": "1993-036AH", "EPOCH": "2025-12-24T08:24:35.670240", "MEAN_MOTION": 13.45845232, "ECCENTRICITY": 0.04277696, "INCLINATION": 73.9013, "RA_OF_ASC_NODE": 326.8023, "ARG_OF_PERICENTER": 29.3346, "MEAN_ANOMALY": 117.3815, "EPHEMERIS_TYPE": 0, "CLASSIFICATION_TYPE": "U", "NORAD_CAT_ID": 33792, "ELEMENT_SET_NO": 999, "REV_AT_EPOCH": 82598, "BSTAR": 0.0011175575, "MEAN_MOTION_DOT": 1.14e-05, "MEAN_MOTION_DDOT": 0}, "tle": {"line1": "1 33792U 93036AH  25358.35041285  .00001140  00000+0  11176-2 0  9999", "line2": "2 33792  73.9013 326.8023 0427769  29.3346 117.3815 13.45845232825980"}}, "geometry": {"type": "Point", "coordinates": [-26.56038116747199, 26.120579661941868]}}, {"type": "Feature", "properties": {"norad_id": 33793, "name": "COSMOS 2251 DEB", "group": "cosmos-2251-debris", "lat": -37.083364597068254, "lon": 114.56262155446147, "alt_km": 765.9591131132411, "timestamp": "2025-12-25T07:00:34.440764+00:00", "meta": {"OBJECT_NAME": "COSMOS 2251 DEB", "OBJECT_ID": "1993-036AJ", "EPOCH": "2025-12-24T20:00:32.387616", "MEAN_MOTION": 14.27763171, "ECCENTRICITY": 0.0078937, "INCLINATION": 73.9808, "RA_OF_ASC_NODE": 127.9369, "ARG_OF_PERICENTER": 275.6893, "MEAN_ANOMALY": 209.9002, "EPHEMERIS_TYPE": 0, "CLASSIFICATION_TYPE": "U", "NORAD_CAT_ID": 33793, "ELEMENT_SET_NO": 999, "REV_AT_EPOCH": 87379, "BSTAR": 0.00072114385, "MEAN_MOTION_DOT": 1.814e-05, "MEAN_MOTION_DDOT": 0}, "tle": {"line1": "1 33793U 93036AJ  25358.83370819  .00001814  00000+0  72114-3 0  9999", "line2": "2 33793  73.9808 127.9369 0078937 275.6893 209.9002 14.27763171873798"}}, "geometry": {"type": "Point", "coordinates": [114.56262155446147, -37.083364597068254]}}, {"type": "Feature", "properties": {"norad_id": 33795, "name": "COSMOS 2251 DEB", "group": "cosmos-2251-debris", "lat": -7.247795818360097, "lon": -126.9208341175816, "alt_km": 541.0232566736386, "timestamp": "2025-12-25T07:00:34.440774+00:00", "meta": {"OBJECT_NAME": "COSMOS 2251 DEB", "OBJECT_ID": "1993-036AL", "EPOCH": "2025-12-24T21:23:55.071168", "MEAN_MOTION": 15.05911163, "ECCENTRICITY": 0.00302804, "INCLINATION": 74.0314, "RA_OF_ASC_NODE": 51.8134, "ARG_OF_PERICENTER": 130.5816, "MEAN_ANOMALY": 46.484, "EPHEMERIS_TYPE": 0, "CLASSIFICATION_TYPE": "U", "NORAD_CAT_ID": 33795, "ELEMENT_SET_NO": 999, "REV_AT_EPOCH": 90204, "BSTAR": 0.001176325, "MEAN_MOTION_DOT": 0.00017286, "MEAN_MOTION_DDOT": 0}, "tle": {"line1": "1 33795U 93036AL  25358.89160962  .00017286  00000+0  11763-2 0  9995", "line2": "2 33795  74.0314  51.8134 0030280 130.5816  46.4840 15.05911163902040"}}, "geometry": {"type": "Point", "coordinates": [-126.9208341175816, -7.247795818360097]}}, {"type": "Feature", "properties": {"norad_id": 33797, "name": "COSMOS 2251 DEB", "group": "cosmos-2251-debris", "lat": 5.331565531380599, "lon": 12.632365469479534, "alt_km": 701.3092078063446, "timestamp": "2025-12-25T07:00:34.440784+00:00", "meta": {"OBJECT_NAME": "COSMOS 2251 DEB", "OBJECT_ID": "1993-036AN", "EPOCH": "2025-12-24T18:37:11.820000", "MEAN_MOTION": 14.57888337, "ECCENTRICITY": 0.00603598, "INCLINATION": 74.0464, "RA_OF_ASC_NODE": 12.0834, "ARG_OF_PERICENTER": 96.3114, "MEAN_ANOMALY": 81.7505, "EPHEMERIS_TYPE": 0, "CLASSIFICATION_TYPE": "U", "NORAD_CAT_ID": 33797, "ELEMENT_SET_NO": 999, "REV_AT_EPOCH": 89160, "BSTAR": 0.00036206097, "MEAN_MOTION_DOT": 1.672e-05, "MEAN_MOTION_DDOT": 0}, "tle": {"line1": "1 33797U 93036AN  25358.77583125  .00001672  00000+0  36206-3 0  9996", "line2": "2 33797  74.0464  12.0834 0060359  96.3114  81.7505 14.57888337891605"}}, "geometry": {"type": "Point", "coordinates": [12.632365469479534, 5.331565531380599]}}, {"type": "Feature", "properties": {"norad_id": 33798, "name": "COSMOS 2251 DEB", "group": "cosmos-2251-debris", "lat": 7.926305678760377, "lon": 114.81079246629783, "alt_km": 792.7457725149952, "timestamp": "2025-12-25T07:00:34.440795+00:00", "meta": {"OBJECT_NAME": "COSMOS 2251 DEB", "OBJECT_ID": "1993-036AP", "EPOCH": "2025-12-24T14:27:08.287200", "MEAN_MOTION": 14.44629315, "ECCENTRICITY": 0.00923262, "INCLINATION": 74.0294, "RA_OF_ASC_NODE": 113.8102, "ARG_OF_PERICENTER": 232.6043, "MEAN_ANOMALY": 148.6193, "EPHEMERIS_TYPE": 0, "CLASSIFICATION_TYPE": "U", "NORAD_CAT_ID": 33798, "ELEMENT_SET_NO": 999, "REV_AT_EPOCH": 88765, "BSTAR": 0.0001879405, "MEAN_MOTION_DOT": 6.56e-06, "MEAN_MOTION_DDOT": 0}, "tle": {"line1": "1 33798U 93036AP  25358.60217925  .00000656  00000+0  18794-3 0  9994", "line2": "2 33798  74.0294 113.8102 0092326 232.6043 148.6193 14.44629315887651"}}, "geometry": {"type": "Point", "coordinates": [114.81079246629783, 7.926305678760377]}}]}